API VERSION: 1.2
API SOURCE: NASA/JPL Horizons API



*******************************************************************************
Ephemeris / API_USER Mon Apr 13 11:59:16 2026 Pasadena, USA      / Horizons
*******************************************************************************
Target body name: Jupiter (599)                   {source: jup365_merged}
Center body name: Earth (399)                     {source: DE441}
Center-site name: BODY CENTER
*******************************************************************************
Start time      : A.D. 2023-Jan-14 05:48:00.0000 TDB
Stop  time      : A.D. 2023-Jan-16 05:48:00.0000 TDB
Step-size       : 60 minutes
*******************************************************************************
Center geodetic : 0.0, 0.0, 0.0                   {E-lon(deg),Lat(deg),Alt(km)}
Center cylindric: 0.0, 0.0, 0.0                   {E-lon(deg),Dxy(km),Dz(km)}
Center radii    : 6378.137, 6378.137, 6356.752 km {Equator_a, b, pole_c}
Output units    : AU-D
Calendar mode   : Mixed Julian/Gregorian
Output type     : GEOMETRIC cartesian states
Output format   : 3 (position, velocity, LT, range, range-rate)
EOP file        : eop.260410.p260707
EOP coverage    : DATA-BASED 1962-JAN-20 TO 2026-APR-10. PREDICTS-> 2026-JUL-06
Reference frame : Ecliptic of J2000.0
*******************************************************************************
            JDTDB,            Calendar Date (TDB),                      X,                      Y,                      Z,                     VX,                     VY,                     VZ,                     LT,                     RG,                     RR,
**************************************************************************************************************************************************************************************************************************************************************************
$$SOE
2459959.991666667, A.D. 2023-Jan-15 11:48:00.0000,  5.224158332858432E+00,  2.636846272150395E-01, -1.124350176800888E-01,  1.405468513341650E-02,  1.495818100681677E-02,  8.424508593364969E-06,  3.021760988101527E-02,  5.232016963141886E+00,  1.478726008980758E-02,
2459960.033333333, A.D. 2023-Jan-15 12:48:00.0000,  5.224743823565154E+00,  2.643081231789720E-01, -1.124346665048625E-01,  1.404886833782577E-02,  1.496962340154959E-02,  8.431880013285220E-06,  3.022116794971805E-02,  5.232633023640457E+00,  1.478364386667008E-02,
2459960.075000000, A.D. 2023-Jan-15 13:48:00.0000,  5.225329071856852E+00,  2.649320956833283E-01, -1.124343150249215E-01,  1.404304939672001E-02,  1.498105510947811E-02,  8.439143532240658E-06,  3.022472514825435E-02,  5.233248933474374E+00,  1.478002837813231E-02,
2459960.116666667, A.D. 2023-Jan-15 14:48:00.0000,  5.225914077666121E+00,  2.655565443042581E-01, -1.124339632436578E-01,  1.403722933926259E-02,  1.499247718605627E-02,  8.446352682543324E-06,  3.022828147693358E-02,  5.233864692697209E+00,  1.477641470146751E-02,
2459960.158333333, A.D. 2023-Jan-15 15:48:00.0000,  5.226498840964974E+00,  2.661814686650472E-01, -1.124336111621729E-01,  1.403140902462115E-02,  1.500389083409335E-02,  8.453563680458074E-06,  3.023183693630540E-02,  5.234480301404130E+00,  1.477280375222010E-02,
2459960.200000000, A.D. 2023-Jan-15 16:48:00.0000,  5.227083361757303E+00,  2.668068684417027E-01, -1.124332587791921E-01,  1.402558912038606E-02,  1.501529737660106E-02,  8.460834132876882E-06,  3.023539152711801E-02,  5.235095759724688E+00,  1.476919626140681E-02,
2459960.241666667, A.D. 2023-Jan-15 17:48:00.0000,  5.227667640070511E+00,  2.674327433673411E-01, -1.124329060910347E-01,  1.401977008513316E-02,  1.502669822657402E-02,  8.468221699064523E-06,  3.023894525027141E-02,  5.235711067814709E+00,  1.476559275667921E-02,
2459960.283333333, A.D. 2023-Jan-15 18:48:00.0000,  5.228251675946529E+00,  2.680590932352641E-01, -1.124325530916400E-01,  1.401395215570291E-02,  1.503809485426916E-02,  8.475782737157875E-06,  3.024249810676662E-02,  5.236326225847519E+00,  1.476199354804443E-02,
2459960.325000000, A.D. 2023-Jan-15 19:48:00.0000,  5.228835469432392E+00,  2.686859179006286E-01, -1.124321997726493E-01,  1.400813533969495E-02,  1.504948875262033E-02,  8.483570965933131E-06,  3.024605009765209E-02,  5.236941234004644E+00,  1.475839871867180E-02,
2459960.366666667, A.D. 2023-Jan-15 20:48:00.0000,  5.229419020570635E+00,  2.693132172806518E-01, -1.124318461235435E-01,  1.400231941356603E-02,  1.506088140153119E-02,  8.491636173956717E-06,  3.024960122396857E-02,  5.237556092466289E+00,  1.475480812120813E-02,
2459960.408333333, A.D. 2023-Jan-15 21:48:00.0000,  5.230002329389722E+00,  2.699409913533157E-01, -1.124314921318315E-01,  1.399650392657079E-02,  1.507227423190778E-02,  8.500023009690444E-06,  3.025315148669375E-02,  5.238170801401737E+00,  1.475122137988329E-02,
2459960.450000000, A.D. 2023-Jan-15 22:48:00.0000,  5.230585395894763E+00,  2.705692401545893E-01, -1.124311377832888E-01,  1.399068821060545E-02,  1.508366859039740E-02,  8.508769886850864E-06,  3.025670088668817E-02,  5.238785360959986E+00,  1.474763789851477E-02,
2459960.491666667, A.D. 2023-Jan-15 23:48:00.0000,  5.231168220058762E+00,  2.711979637742091E-01, -1.124307830622362E-01,  1.398487139581337E-02,  1.509506570586953E-02,  8.517908038610844E-06,  3.026024942464371E-02,  5.239399771260828E+00,  1.474405687432339E-02,
2459960.533333333, A.D. 2023-Jan-16 00:48:00.0000,  5.231750801814632E+00,  2.718271623501231E-01, -1.124304279518572E-01,  1.397905243159837E-02,  1.510646665869082E-02,  8.527460751611098E-06,  3.026379710103608E-02,  5.240014032386631E+00,  1.474047731726216E-02,
2459960.575000000, A.D. 2023-Jan-16 01:48:00.0000,  5.232333141048191E+00,  2.724568360617238E-01, -1.124300724345398E-01,  1.397323011248339E-02,  1.511787235379888E-02,  8.537442806100923E-06,  3.026734391608260E-02,  5.240628144375026E+00,  1.473689807435049E-02,
2459960.616666667, A.D. 2023-Jan-16 02:48:00.0000,  5.232915237592309E+00,  2.730869851220608E-01, -1.124297164922402E-01,  1.396740310805865E-02,  1.512928349846755E-02,  8.547860141917335E-06,  3.027088986970637E-02,  5.241242107212694E+00,  1.473331785830852E-02,
2459960.658333333, A.D. 2023-Jan-16 03:48:00.0000,  5.233497091222394E+00,  2.737176097692332E-01, -1.124293601068532E-01,  1.396156999610050E-02,  1.514070058548123E-02,  8.558709761720207E-06,  3.027443496150772E-02,  5.241855920830434E+00,  1.472973527961552E-02,
2459960.700000000, A.D. 2023-Jan-16 04:48:00.0000,  5.234078701653295E+00,  2.743487102572040E-01, -1.124290032605826E-01,  1.395572929782067E-02,  1.515212388221480E-02,  8.569979873547547E-06,  3.027797919074376E-02,  5.242469585099622E+00,  1.472614888098447E-02,
2459960.741666667, A.D. 2023-Jan-16 05:48:00.0000,  5.234660068537686E+00,  2.749802868462867E-01, -1.124286459363007E-01,  1.394987951413410E-02,  1.516355342585981E-02,  8.581650264925690E-06,  3.028152255631629E-02,  5.243083099830110E+00,  1.472255717316088E-02,
